NEXTSAT-1               
1 43811U 18099BF  26068.68342010  .00004546  00000+0  29857-3 0  9992
2 43811  97.4203 114.8574 0011320 323.9610  36.0854 15.08057555396886
STARLINK-34958          
1 65237U 25179C   26068.68215167 -.00003307  00000+0 -22527-3 0  9990
2 65237  97.6029 112.9018 0001649 109.5641 250.5764 15.05622171 31964
